NORAD_CAT_ID,OBJECT_NAME,OBJECT_TYPE,EPOCH,MEAN_MOTION,ECCENTRICITY,INCLINATION,RA_OF_ASC_NODE,ARG_OF_PERICENTER,MEAN_ANOMALY,BSTAR,MEAN_MOTION_DOT,MEAN_MOTION_DDOT,TLE_LINE0,TLE_LINE1,TLE_LINE2,SEMIMAJOR_AXIS,PERIOD,APOGEE,PERIGEE,DECAYED
53136.0,STARLINK-4152,PAYLOAD,2022-09-14 14:00:01,15.0882338,0.0001827,53.217,124.8234,58.1159,189.7336,0.0014588,0.00022995,0.0,0 STARLINK-4152,1 53136U 22083E   22257.58334491  .00022995  00000-0  14588-2 0  9993,2 53136  53.2170 124.8234 0001827  58.1159 189.7336 15.08823380  1308,6917.931,95.439,541.06,538.5319999999998,0.0
53136.0,STARLINK-4152,PAYLOAD,2022-09-14 20:00:01,15.08840592,0.0001786,53.2167,123.7103,56.5642,109.9566,-0.0010135,-0.00016382,0.0,0 STARLINK-4152,1 53136U 22083E   22257.83334491 -.00016382  00000-0 -10135-2 0  9990,2 53136  53.2167 123.7103 0001786  56.5642 109.9566 15.08840592  9839,6917.879,95.438,540.979,538.508,0.0
53136.0,STARLINK-4152,PAYLOAD,2022-09-14 22:00:00,15.08860268,0.0001695,53.2166,123.3365,50.9683,208.4846,-0.0026652,-0.00042479,0.0,0 STARLINK-4152,1 53136U 22083E   22257.91667824 -.00042479  00000-0 -26652-2 0  9995,2 53136  53.2166 123.3365 0001695  50.9683 208.4846 15.08860268  1308,6917.818,95.436,540.856,538.511,0.0
53136.0,STARLINK-4152,PAYLOAD,2022-09-15 06:00:00,15.08854891,0.0001610999999999,53.2164,121.8395,49.0868,221.9646,-0.0014544,-0.0002336999999999,0.0,0 STARLINK-4152,1 53136U 22083E   22258.25001157 -.00023370  00000-0 -14544-2 0  9990,2 53136  53.2164 121.8395 0001611  49.0868 221.9646 15.08854891  9899,6917.835,95.437,540.814,538.585,0.0
53136.0,STARLINK-4152,PAYLOAD,2022-09-15 14:00:01,15.08844105,0.0001485,53.2165,120.3419,56.3981,226.2557,0.0009527999999999,0.0001491,0.0,0 STARLINK-4152,1 53136U 22083E   22258.58334491  .00014910  00000-0  95280-3 0  9991,2 53136  53.2165 120.3419 0001485  56.3981 226.2557 15.08844105  1301,6917.868,95.437,540.76,538.706,0.0
53136.0,STARLINK-4152,PAYLOAD,2022-09-15 22:00:00,15.08832427,0.0001626,53.2164,118.8474,48.9663,245.3016,-0.00034948,-5.845e-05,0.0,0 STARLINK-4152,1 53136U 22083E   22258.91667824 -.00005845  00000-0 -34948-3 0  9990,2 53136  53.2164 118.8474 0001626  48.9663 245.3016 15.08832427  9993,6917.904,95.438,540.893,538.644,0.0
53136.0,STARLINK-4152,PAYLOAD,2022-09-16 14:00:01,15.08808193,0.0001575999999999,53.2164,115.8529,57.1966,260.2434,0.0016635999999999,0.00026264,0.0,0 STARLINK-4152,1 53136U 22083E   22259.58334491  .00026264  00000-0  16636-2 0  9994,2 53136  53.2164 115.8529 0001576  57.1966 260.2434 15.08808193  1303,6917.978,95.44,540.933,538.752,0.0
53136.0,STARLINK-4152,PAYLOAD,2022-09-16 22:00:00,15.08816062,0.000177,53.2165,114.3584,51.1426,277.8691,0.00044113,6.735e-05,0.0,0 STARLINK-4152,1 53136U 22083E   22259.91667824  .00006735  00000-0  44113-3 0  9993,2 53136  53.2165 114.3584 0001770  51.1426 277.8691 15.08816062  1303,6917.954000000002,95.439,541.043,538.594,0.0
53136.0,STARLINK-4152,PAYLOAD,2022-09-17 06:00:00,15.08843548,0.0001705,53.2164,112.8612,50.4697,290.1073,-0.0019206,-0.00030728,0.0,0 STARLINK-4152,1 53136U 22083E   22260.25001157 -.00030728  00000-0 -19206-2 0  9998,2 53136  53.2164 112.8612 0001705  50.4697 290.1073 15.08843548 10195,6917.87,95.437,540.914,538.555,0.0
53136.0,STARLINK-4152,PAYLOAD,2022-09-17 14:00:01,15.08826441,0.000167,53.2168,111.364,57.2873,294.8758,0.0018763999999999,0.0002969,0.0,0 STARLINK-4152,1 53136U 22083E   22260.58334491  .00029690  00000-0  18764-2 0  9996,2 53136  53.2168 111.3640 0001670  57.2873 294.8758 15.08826441  1303,6917.922,95.438,540.942,538.632,0.0
53136.0,STARLINK-4152,PAYLOAD,2022-09-17 22:00:00,15.08833038,0.0001857,53.2169,109.8695,51.224,312.532,0.00064918,0.00010057,0.0,0 STARLINK-4152,1 53136U 22083E   22260.91667824  .00010057  00000-0  64918-3 0  9992,2 53136  53.2169 109.8695 0001857  51.2240 312.5320 15.08833038  1308,6917.901999999999,95.438,541.0509999999998,538.482,0.0
53136.0,STARLINK-4152,PAYLOAD,2022-09-18 14:00:01,15.08823253,0.0001649,53.2174,106.875,54.9741,332.0421,0.0015018,0.00023683,0.0,0 STARLINK-4152,1 53136U 22083E   22261.58335648  .00023683  00000-0  15018-2 0  9997,2 53136  53.2174 106.8750 0001649  54.9741 332.0421 15.08823253  1305,6917.932,95.439,540.937,538.656,0.0
53136.0,STARLINK-4152,PAYLOAD,2022-09-18 22:00:00,15.08825837,0.0001848,53.2174,105.3805,49.128,349.4141,0.0010417999999999,0.00016325,0.0,0 STARLINK-4152,1 53136U 22083E   22261.91667824  .00016325  00000-0  10418-2 0  9992,2 53136  53.2174 105.3805 0001848  49.1280 349.4141 15.08825837  1306,6917.924,95.438,541.067,538.51,0.0
53136.0,STARLINK-4152,PAYLOAD,2022-09-19 14:00:01,15.08833243,0.0001721999999999,53.2172,102.3771,52.7812,8.9487,0.00040444,6.153e-05,0.0,0 STARLINK-4152,1 53136U 22083E   22262.58334491  .00006153  00000-0  40444-3 0  9998,2 53136  53.2172 102.3771 0001722  52.7812   8.9487 15.08833243  1305,6917.901,95.438,540.957,538.575,0.0
53136.0,STARLINK-4152,PAYLOAD,2022-09-19 22:00:00,15.08816083,0.000198,53.2179,100.8916,51.8118,21.5177,0.0013103,0.00020613,0.0,0 STARLINK-4152,1 53136U 22083E   22262.91667824  .00020613  00000-0  13103-2 0  9992,2 53136  53.2179 100.8916 0001980  51.8118  21.5177 15.08816083  1301,6917.953,95.439,541.188,538.4490000000002,0.0
53136.0,STARLINK-4152,PAYLOAD,2022-09-20 14:00:01,15.08841535,0.0001874,53.2173,97.888,55.1329,41.3691,-0.000372,-6.204e-05,0.0,0 STARLINK-4152,1 53136U 22083E   22263.58334491 -.00006204  00000-0 -37200-3 0  9994,2 53136  53.2173  97.8880 0001874  55.1329  41.3691 15.08841535  1304,6917.876,95.437,541.0369999999998,538.444,0.0
53136.0,STARLINK-4152,PAYLOAD,2022-09-20 22:00:01,15.08845336,0.000193,53.218,96.4026,51.4318,56.7376,-0.0011523,-0.00018583,0.0,0 STARLINK-4152,1 53136U 22083E   22263.91668981 -.00018583  00000-0 -11523-2 0  9997,2 53136  53.2180  96.4026 0001930  51.4318  56.7376 15.08845336 10751,6917.864000000001,95.437,541.064,538.394,0.0
53136.0,STARLINK-4152,PAYLOAD,2022-09-21 22:00:00,15.08817945,0.0001859,53.2177,91.9138,50.9382,91.9382,0.0021387,0.00033893,0.0,0 STARLINK-4152,1 53136U 22083E   22264.91667824  .00033893  00000-0  21387-2 0  9991,2 53136  53.2177  91.9138 0001859  50.9382  91.9382 15.08817945  1300,6917.948,95.439,541.099,538.5269999999998,0.0
53136.0,STARLINK-4152,PAYLOAD,2022-09-22 14:00:01,15.08854204,0.000173,53.2175,88.9195,59.0795,106.9697,-0.00060132,-9.849e-05,0.0,0 STARLINK-4152,1 53136U 22083E   22265.58334491 -.00009849  00000-0 -60132-3 0  9994,2 53136  53.2175  88.9195 0001730  59.0795 106.9697 15.08854204  1308,6917.837,95.437,540.899,538.505,0.0
53136.0,STARLINK-4152,PAYLOAD,2022-09-22 22:00:00,15.08833056,0.0001844,53.2171,87.4247,51.5997,126.0622,0.0014105,0.00022227,0.0,0 STARLINK-4152,1 53136U 22083E   22265.91667824  .00022227  00000-0  14105-2 0  9991,2 53136  53.2171  87.4247 0001844  51.5997 126.0622 15.08833056  1306,6917.901999999999,95.438,541.0419999999998,538.491,0.0
53136.0,STARLINK-4152,PAYLOAD,2022-09-23 14:00:01,15.08842085,0.0001668,53.2169,84.4304,57.7121,143.1294,-0.00077274,-0.00012566,0.0,0 STARLINK-4152,1 53136U 22083E   22266.58334491 -.00012566  00000-0 -77274-3 0  9990,2 53136  53.2169  84.4304 0001668  57.7121 143.1294 15.08842085  1302,6917.874,95.437,540.893,538.585,0.0
53136.0,STARLINK-4152,PAYLOAD,2022-09-23 22:00:00,15.08813267,0.0001813,53.2167,82.9354,50.1939,162.247,0.0031068,0.00049468,0.0,0 STARLINK-4152,1 53136U 22083E   22266.91667824  .00049468  00000-0  31068-2 0  9995,2 53136  53.2167  82.9354 0001813  50.1939 162.2470 15.08813267 11202,6917.962,95.439,541.081,538.573,0.0
53136.0,STARLINK-4152,PAYLOAD,2022-09-24 14:00:01,15.08863009,0.0001721999999999,53.2166,79.941,56.9256,178.7583,-0.00079253,-0.00012887,0.0,0 STARLINK-4152,1 53136U 22083E   22267.58335648 -.00012887  00000-0 -79253-3 0  9991,2 53136  53.2166  79.9410 0001722  56.9256 178.7583 15.08863009  1301,6917.81,95.436,540.866,538.484,0.0
53136.0,STARLINK-4152,PAYLOAD,2022-09-24 22:00:00,15.08837111,0.0001817,53.2166,78.4459,48.6025,198.641,0.00066468,0.00010305,0.0,0 STARLINK-4152,1 53136U 22083E   22267.91667824  .00010305  00000-0  66468-3 0  9997,2 53136  53.2166  78.4459 0001817  48.6025 198.6410 15.08837111  1300,6917.889,95.438,541.011,538.497,0.0
53136.0,STARLINK-4152,PAYLOAD,2022-09-25 14:00:01,15.08869697,0.0001669,53.2171,75.4517,53.4607,216.9723,-0.0022214,-0.00035497,0.0,0 STARLINK-4152,1 53136U 22083E   22268.58334491 -.00035497  00000-0 -22214-2 0  9993,2 53136  53.2171  75.4517 0001669  53.4607 216.9723 15.08869697  1308,6917.79,95.436,540.809,538.5,0.0
53136.0,STARLINK-4152,PAYLOAD,2022-09-25 22:00:01,15.08808695,0.0001783,53.2169,73.9561,45.4202,236.6928,0.0024941,0.00039595,0.0,0 STARLINK-4152,1 53136U 22083E   22268.91668981  .00039595  00000-0  24941-2 0  9994,2 53136  53.2169  73.9561 0001783  45.4202 236.6928 15.08808695  1303,6917.976,95.44,541.075,538.6080000000002,0.0
53136.0,STARLINK-4152,PAYLOAD,2022-09-26 10:00:00,15.08822675,0.0001638,53.2175,71.7095,52.5694,66.8475,0.0022131,0.00035093,0.0,0 STARLINK-4152,1 53136U 22083E   22269.41667824  .00035093  00000-0  22131-2 0  9993,2 53136  53.2175  71.7095 0001638  52.5694  66.8475 15.08822675 11586,6917.933000000001,95.439,540.932,538.665,0.0
53136.0,STARLINK-4152,PAYLOAD,2022-09-26 14:00:01,15.08851883,0.0001695,53.2177,70.9622,50.4408,254.7624,-0.0012162,-0.00019598,0.0,0 STARLINK-4152,1 53136U 22083E   22269.58334491 -.00019598  00000-0 -12162-2 0  9999,2 53136  53.2177  70.9622 0001695  50.4408 254.7624 15.08851883  1304,6917.844,95.437,540.882,538.536,0.0
53136.0,STARLINK-4152,PAYLOAD,2022-09-26 22:00:00,15.08836612,0.0001795,53.2177,69.4671,43.3713,273.4357,0.00059823,9.245e-05,0.0,0 STARLINK-4152,1 53136U 22083E   22269.91667824  .00009245  00000-0  59823-3 0  9997,2 53136  53.2177  69.4671 0001795  43.3713 273.4357 15.08836612  1306,6917.891,95.438,540.998,538.514,0.0
